{"type": "FeatureCollection", "features": [ {"type": "Feature", "properties": {"norad_id": 35484, "name": "IRIDIUM 33 DEB", "group": "iridium-33-debris", "lat": -85.94035224246501, "lon": -130.4031001227757, "alt_km": 592.371032006984, "timestamp": "2025-12-27T10:28:59.179612+00:00", "meta": {"OBJECT_NAME": "IRIDIUM 33 DEB", "OBJECT_ID": "1997-051QE", "EPOCH": "2025-12-23T05:59:10.354560", "MEAN_MOTION": 14.99264182, "ECCENTRICITY": 0.00245796, "INCLINATION": 86.3609, "RA_OF_ASC_NODE": 347.8264, "ARG_OF_PERICENTER": 91.5392, "MEAN_ANOMALY": 268.8655, "EPHEMERIS_TYPE": 0, "CLASSIFICATION_TYPE": "U", "NORAD_CAT_ID": 35484, "ELEMENT_SET_NO": 999, "REV_AT_EPOCH": 62173, "BSTAR": 0.0029536278, "MEAN_MOTION_DOT": 0.00036413, "MEAN_MOTION_DDOT": 0}, "tle": {"line1": "1 35484U 97051QE  25357.24942540  .00036413  00000+0  29536-2 0  9991", "line2": "2 35484  86.3609 347.8264 0024579  91.5392 268.8655 14.99264182621733"}}, "geometry": {"type": "Point", "coordinates": [-130.4031001227757, -85.94035224246501]}}, {"type": "Feature", "properties": {"norad_id": 35488, "name": "IRIDIUM 33 DEB", "group": "iridium-33-debris", "lat": -79.45572048859877, "lon": 134.30418425604043, "alt_km": 627.1021166989476, "timestamp": "2025-12-27T10:28:59.179623+00:00", "meta": {"OBJECT_NAME": "IRIDIUM 33 DEB", "OBJECT_ID": "1997-051QJ", "EPOCH": "2025-12-27T02:50:12.410016", "MEAN_MOTION": 14.83437046, "ECCENTRICITY": 0.0027504, "INCLINATION": 86.3244, "RA_OF_ASC_NODE": 294.248, "ARG_OF_PERICENTER": 354.9458, "MEAN_ANOMALY": 5.1482, "EPHEMERIS_TYPE": 0, "CLASSIFICATION_TYPE": "U", "NORAD_CAT_ID": 35488, "ELEMENT_SET_NO": 999, "REV_AT_EPOCH": 88479, "BSTAR": 0.00205, "MEAN_MOTION_DOT": 0.00016991, "MEAN_MOTION_DDOT": 0}, "tle": {"line1": "1 35488U 97051QJ  25361.11819919  .00016991  00000+0  20500-2 0  9990", "line2": "2 35488  86.3244 294.2480 0027504 354.9458   5.1482 14.83437046884798"}}, "geometry": {"type": "Point", "coordinates": [134.30418425604043, -79.45572048859877]}}, {"type": "Feature", "properties": {"norad_id": 35616, "name": "IRIDIUM 33 DEB", "group": "iridium-33-debris", "lat": -7.0330118793150005, "lon": -21.395401365074296, "alt_km": 630.6480985937151, "timestamp": "2025-12-27T10:28:59.179633+00:00", "meta": {"OBJECT_NAME": "IRIDIUM 33 DEB", "OBJECT_ID": "1997-051QN", "EPOCH": "2025-12-21T16:46:45.287328", "MEAN_MOTION": 14.82015021, "ECCENTRICITY": 0.00114093, "INCLINATION": 86.3545, "RA_OF_ASC_NODE": 341.6744, "ARG_OF_PERICENTER": 134.0095, "MEAN_ANOMALY": 226.2069, "EPHEMERIS_TYPE": 0, "CLASSIFICATION_TYPE": "U", "NORAD_CAT_ID": 35616, "ELEMENT_SET_NO": 999, "REV_AT_EPOCH": 87707, "BSTAR": 0.0013754653, "MEAN_MOTION_DOT": 0.00010957, "MEAN_MOTION_DDOT": 0}, "tle": {"line1": "1 35616U 97051QN  25355.69913527  .00010957  00000+0  13755-2 0  9999", "line2": "2 35616  86.3545 341.6744 0011409 134.0095 226.2069 14.82015021877070"}}, "geometry": {"type": "Point", "coordinates": [-21.395401365074296, -7.0330118793150005]}}, {"type": "Feature", "properties": {"norad_id": 35618, "name": "IRIDIUM 33 DEB", "group": "iridium-33-debris", "lat": -7.774139957261016, "lon": -13.421676176046661, "alt_km": 703.3524384293842, "timestamp": "2025-12-27T10:28:59.179643+00:00", "meta": {"OBJECT_NAME": "IRIDIUM 33 DEB", "OBJECT_ID": "1997-051QQ", "EPOCH": "2025-12-26T06:24:30.351744", "MEAN_MOTION": 14.52352312, "ECCENTRICITY": 0.0027953, "INCLINATION": 86.3436, "RA_OF_ASC_NODE": 347.5894, "ARG_OF_PERICENTER": 336.1587, "MEAN_ANOMALY": 23.8322, "EPHEMERIS_TYPE": 0, "CLASSIFICATION_TYPE": "U", "NORAD_CAT_ID": 35618, "ELEMENT_SET_NO": 999, "REV_AT_EPOCH": 65590, "BSTAR": 0.00055338, "MEAN_MOTION_DOT": 2.283e-05, "MEAN_MOTION_DDOT": 0}, "tle": {"line1": "1 35618U 97051QQ  25360.26701796  .00002283  00000+0  55338-3 0  9990", "line2": "2 35618  86.3436 347.5894 0027953 336.1587  23.8322 14.52352312655907"}}, "geometry": {"type": "Point", "coordinates": [-13.421676176046661, -7.774139957261016]}}, {"type": "Feature", "properties": {"norad_id": 35620, "name": "IRIDIUM 33 DEB", "group": "iridium-33-debris", "lat": -45.863403766191325, "lon": -152.4764939523808, "alt_km": 793.1879470881004, "timestamp": "2025-12-27T10:28:59.179653+00:00", "meta": {"OBJECT_NAME": "IRIDIUM 33 DEB", "OBJECT_ID": "1997-051QS", "EPOCH": "2025-12-27T00:40:58.732320", "MEAN_MOTION": 14.38490668, "ECCENTRICITY": 0.0137966, "INCLINATION": 86.3889, "RA_OF_ASC_NODE": 211.4274, "ARG_OF_PERICENTER": 211.239, "MEAN_ANOMALY": 148.0558, "EPHEMERIS_TYPE": 0, "CLASSIFICATION_TYPE": "U", "NORAD_CAT_ID": 35620, "ELEMENT_SET_NO": 999, "REV_AT_EPOCH": 60171, "BSTAR": 0.0055098, "MEAN_MOTION_DOT": 0.00018851, "MEAN_MOTION_DDOT": 0}, "tle": {"line1": "1 35620U 97051QS  25361.02845755  .00018851  00000+0  55098-2 0  9992", "line2": "2 35620  86.3889 211.4274 0137966 211.2390 148.0558 14.38490668601716"}}, "geometry": {"type": "Point", "coordinates": [-152.4764939523808, -45.863403766191325]}}, {"type": "Feature", "properties": {"norad_id": 35622, "name": "IRIDIUM 33 DEB", "group": "iridium-33-debris", "lat": -10.97739140797405, "lon": -104.38506931759532, "alt_km": 551.692115259717, "timestamp": "2025-12-27T10:28:59.179663+00:00", "meta": {"OBJECT_NAME": "IRIDIUM 33 DEB", "OBJECT_ID": "1997-051QU", "EPOCH": "2025-12-26T17:07:03.979200", "MEAN_MOTION": 15.06225935, "ECCENTRICITY": 0.00029087, "INCLINATION": 86.1991, "RA_OF_ASC_NODE": 256.7114, "ARG_OF_PERICENTER": 269.1211, "MEAN_ANOMALY": 119.0846, "EPHEMERIS_TYPE": 0, "CLASSIFICATION_TYPE": "U", "NORAD_CAT_ID": 35622, "ELEMENT_SET_NO": 999, "REV_AT_EPOCH": 87570, "BSTAR": 0.0038578088, "MEAN_MOTION_DOT": 0.00056954, "MEAN_MOTION_DDOT": 0}, "tle": {"line1": "1 35622U 97051QU  25360.71324050  .00056954  00000+0  38578-2 0  9999", "line2": "2 35622  86.1991 256.7114 0002908 269.1211 119.0846 15.06225935875705"}}, "geometry": {"type": "Point", "coordinates": [-104.38506931759532, -10.97739140797405]}}, {"type": "Feature", "properties": {"norad_id": 35628, "name": "IRIDIUM 33 DEB", "group": "iridium-33-debris", "lat": -19.177554353188462, "lon": 1.2498091609697901, "alt_km": 669.5823271513691, "timestamp": "2025-12-27T10:28:59.179673+00:00", "meta": {"OBJECT_NAME": "IRIDIUM 33 DEB", "OBJECT_ID": "1997-051RA", "EPOCH": "2025-12-26T06:45:19.101312", "MEAN_MOTION": 14.67776082, "ECCENTRICITY": 0.0009237, "INCLINATION": 86.3573, "RA_OF_ASC_NODE": 3.0346, "ARG_OF_PERICENTER": 290.0377, "MEAN_ANOMALY": 69.9843, "EPHEMERIS_TYPE": 0, "CLASSIFICATION_TYPE": "U", "NORAD_CAT_ID": 35628, "ELEMENT_SET_NO": 999, "REV_AT_EPOCH": 86645, "BSTAR": 0.0014359, "MEAN_MOTION_DOT": 8.215e-05, "MEAN_MOTION_DDOT": 0}, "tle": {"line1": "1 35628U 97051RA  25360.28147108  .00008215  00000+0  14359-2 0  9992", "line2": "2 35628  86.3573   3.0346 0009237 290.0377  69.9843 14.67776082866459"}}, "geometry": {"type": "Point", "coordinates": [1.2498091609697901, -19.177554353188462]}}, {"type": "Feature", "properties": {"norad_id": 35631, "name": "IRIDIUM 33 DEB", "group": "iridium-33-debris", "lat": -61.484902385534994, "lon": -158.63671316340458, "alt_km": 754.9727565331377, "timestamp": "2025-12-27T10:28:59.179683+00:00", "meta": {"OBJECT_NAME": "IRIDIUM 33 DEB", "OBJECT_ID": "1997-051RD", "EPOCH": "2025-12-25T01:14:45.811104", "MEAN_MOTION": 14.47344148, "ECCENTRICITY": 0.00192475, "INCLINATION": 86.3663, "RA_OF_ASC_NODE": 15.6731, "ARG_OF_PERICENTER": 81.4254, "MEAN_ANOMALY": 341.8279, "EPHEMERIS_TYPE": 0, "CLASSIFICATION_TYPE": "U", "NORAD_CAT_ID": 35631, "ELEMENT_SET_NO": 999, "REV_AT_EPOCH": 87375, "BSTAR": 0.00038061169, "MEAN_MOTION_DOT": 1.417e-05, "MEAN_MOTION_DDOT": 0}, "tle": {"line1": "1 35631U 97051RD  25359.05191911  .00001417  00000+0  38061-3 0  9994", "line2": "2 35631  86.3663  15.6731 0019247  81.4254 341.8279 14.47344148873756"}}, "geometry": {"type": "Point", "coordinates": [-158.63671316340458, -61.484902385534994]}}, {"type": "Feature", "properties": {"norad_id": 35680, "name": "IRIDIUM 33 DEB", "group": "iridium-33-debris", "lat": -83.0489335805505, "lon": -130.99013288737106, "alt_km": 737.139938535217, "timestamp": "2025-12-27T10:28:59.179693+00:00", "meta": {"OBJECT_NAME": "IRIDIUM 33 DEB", "OBJECT_ID": "1997-051RJ", "EPOCH": "2025-12-26T12:00:19.371744", "MEAN_MOTION": 14.21136562, "ECCENTRICITY": 0.0150773, "INCLINATION": 86.1027, "RA_OF_ASC_NODE": 15.428, "ARG_OF_PERICENTER": 234.4546, "MEAN_ANOMALY": 280.2175, "EPHEMERIS_TYPE": 0, "CLASSIFICATION_TYPE": "U", "NORAD_CAT_ID": 35680, "ELEMENT_SET_NO": 999, "REV_AT_EPOCH": 60896, "BSTAR": 0.0033475, "MEAN_MOTION_DOT": 8.18e-05, "MEAN_MOTION_DDOT": 0}, "tle": {"line1": "1 35680U 97051RJ  25360.50022421  .00008180  00000+0  33475-2 0  9996", "line2": "2 35680  86.1027  15.4280 0150773 234.4546 280.2175 14.21136562608964"}}, "geometry": {"type": "Point", "coordinates": [-130.99013288737106, -83.0489335805505]}}, {"type": "Feature", "properties": {"norad_id": 35744, "name": "IRIDIUM 33 DEB", "group": "iridium-33-debris", "lat": 58.17077801500978, "lon": -35.269950929274415, "alt_km": 649.7217526941758, "timestamp": "2025-12-27T10:28:59.179703+00:00", "meta": {"OBJECT_NAME": "IRIDIUM 33 DEB", "OBJECT_ID": "1997-051RX", "EPOCH": "2025-12-27T03:41:19.438080", "MEAN_MOTION": 14.71188537, "ECCENTRICITY": 0.0022271, "INCLINATION": 86.33, "RA_OF_ASC_NODE": 318.9229, "ARG_OF_PERICENTER": 142.0828, "MEAN_ANOMALY": 218.1962, "EPHEMERIS_TYPE": 0, "CLASSIFICATION_TYPE": "U", "NORAD_CAT_ID": 35744, "ELEMENT_SET_NO": 999, "REV_AT_EPOCH": 87543, "BSTAR": 0.001404, "MEAN_MOTION_DOT": 8.708e-05, "MEAN_MOTION_DDOT": 0}, "tle": {"line1": "1 35744U 97051RX  25361.15369720  .00008708  00000+0  14040-2 0  9998", "line2": "2 35744  86.3300 318.9229 0022271 142.0828 218.1962 14.71188537875439"}}, "geometry": {"type": "Point", "coordinates": [-35.269950929274415, 58.17077801500978]}}]}